IRIDIUM 26              
1 24903U 97043A   25256.19230320  .00000303  00000+0  95101-4 0  9996
2 24903  86.3899  73.6212 0002232  94.7073 265.4379 14.37205179469388
IRIDIUM 22              
1 24907U 97043E   25256.26471483  .00000263  00000+0  83917-4 0  9992
2 24907  86.3900  77.2092 0002256  89.7059 270.4397 14.36011212469417
DUMMY MASS 1            
1 24925U 97048A   25255.83124277  .00000277  00000+0  27756-4 0  9999
2 24925  86.3292  94.7906 0006391 174.8906 185.2386 14.87050552518153
DUMMY MASS 2            
1 24926U 97048B   25256.00990628  .00000275  00000+0  27681-4 0  9996
2 24926  86.3294  96.3331 0006661 188.6612 171.4500 14.86802259517953
IRIDIUM 29              
1 24944U 97051A   25256.04709581  .00000258  00000+0  81027-4 0  9995
2 24944  86.3914 107.0429 0002114  81.9249 278.2188 14.36531726465885
IRIDIUM 33              
1 24946U 97051C   25256.05599868  .00000192  00000+0  60447-4 0  9993
2 24946  86.3829 106.3068 0008985 139.5442 220.6423 14.34938358465344
IRIDIUM 28              
1 24948U 97051E   25256.03469797  .00000228  00000+0  69663-4 0  9999
2 24948  86.3916 104.5117 0002369 100.0168 260.1298 14.37439508466465
IRIDIUM 36              
1 24967U 97056C   25256.12342395  .00000250  00000+0  76653-4 0  9991
2 24967  86.3989 136.0911 0002374  87.7046 272.4423 14.37668912464850
